ONEWEB-0080             
1 45426U 20020C   24250.21552404 -.00000373  00000+0 -10890-2 0  9995
2 45426  87.8985 150.3034 0001667  87.9441 272.1878 13.11418164217642
ONEWEB-0090             
1 45427U 20020D   24250.23249061 -.00000020  00000+0 -92955-4 0  9993
2 45427  87.8992 150.2868 0001812  74.6054 285.5274 13.11421150217614
ONEWEB-0061             
1 45428U 20020E   24250.26456081  .00000513  00000+0  14112-2 0  9991
2 45428  87.8985 150.2750 0001743  75.2166 284.9155 13.11417284217570
ONEWEB-0081             
1 45429U 20020F   24250.24605780  .00000573  00000+0  15801-2 0  9994
2 45429  87.8988 150.2970 0001574  71.2050 288.9249 13.11418592217681
ONEWEB-0069             
1 45430U 20020G   24250.23588148  .00000131  00000+0  33386-3 0  9992
2 45430  87.8989 150.2880 0001824  76.7116 283.4216 13.11419017217615
ONEWEB-0031             
1 45431U 20020H   24250.28336223 -.00000352  00000+0 -10278-2 0  9994
2 45431  87.8991 150.2924 0001857  75.2746 284.8587 13.11418115217600
ONEWEB-0027             
1 45432U 20020J   24250.20366117  .00000177  00000+0  42325-3 0  9994
2 45432  87.9158 135.1195 0002103  77.6745 282.4621 13.17650115220891
ONEWEB-0064             
1 45433U 20020K   24250.28167481 -.00000302  00000+0 -88708-3 0  9993
2 45433  87.8985 150.2977 0001958  81.5096 278.6254 13.11411031217638
